[{"OBJECT_NAME":"SKYKRAFT-1A","OBJECT_ID":"2023-001AX","EPOCH":"2026-03-09T17:03:19.828224","MEAN_MOTION":15.28083228,"ECCENTRICITY":0.00112767,"INCLINATION":97.3349,"RA_OF_ASC_NODE":127.629,"ARG_OF_PERICENTER":121.5092,"MEAN_ANOMALY":238.7251,"EPHEMERIS_TYPE":0,"CLASSIFICATION_TYPE":"U","NORAD_CAT_ID":55054,"ELEMENT_SET_NO":999,"REV_AT_EPOCH":17652,"BSTAR":0.0003006872,"MEAN_MOTION_DOT":8.177e-5,"MEAN_MOTION_DDOT":0},{"OBJECT_NAME":"STARLINK-35793","OBJECT_ID":"2025-303S","EPOCH":"2026-03-09T02:04:09.740640","MEAN_MOTION":15.27621373,"ECCENTRICITY":0.00018151,"INCLINATION":43.0009,"RA_OF_ASC_NODE":314.0538,"ARG_OF_PERICENTER":262.6995,"MEAN_ANOMALY":97.365,"EPHEMERIS_TYPE":0,"CLASSIFICATION_TYPE":"U","NORAD_CAT_ID":67179,"ELEMENT_SET_NO":999,"REV_AT_EPOCH":1264,"BSTAR":0.0012006356,"MEAN_MOTION_DOT":0.00032967,"MEAN_MOTION_DDOT":0}]
